{
  "norad_id": 45670,
  "name": "STARLINK-1453",
  "history": [
    {
      "epoch": "2026-03-28T22:17:38.948064Z",
      "apogee_km": 400.1589342512407,
      "perigee_km": 395.642027666433,
      "latitude_deg": -1.7020403384012674e-06,
      "longitude_deg": 119.61269089070277,
      "height_km": 400.129552916753,
      "semi_major_axis_km": 6776.037480958837,
      "eccentricity": 0.0003333,
      "inclination_deg": 53.0455,
      "raan_deg": 280.3673,
      "arg_perigee_deg": 126.2465,
      "mean_anomaly_deg": 233.8854,
      "mean_motion_rev_day": 15.56463937
    }
  ]
}